NORAD_CAT_ID,OBJECT_NAME,OBJECT_TYPE,EPOCH,MEAN_MOTION,ECCENTRICITY,INCLINATION,RA_OF_ASC_NODE,ARG_OF_PERICENTER,MEAN_ANOMALY,BSTAR,MEAN_MOTION_DOT,MEAN_MOTION_DDOT,TLE_LINE0,TLE_LINE1,TLE_LINE2,SEMIMAJOR_AXIS,PERIOD,APOGEE,PERIGEE,DECAYED
53142.0,STARLINK-4101,PAYLOAD,2022-10-07 14:00:01,15.08832803,0.0002311,53.2186,21.5837,36.8836,50.9222,0.00053585,8.249e-05,0.0,0 STARLINK-4101,1 53142U 22083L   22280.58334491  .00008249  00000-0  53585-3 0  9993,2 53142  53.2186  21.5837 0002311  36.8836  50.9222 15.08832803  1301,6917.901999999999,95.438,541.366,538.169,0.0
53142.0,STARLINK-4101,PAYLOAD,2022-10-07 22:00:00,15.08867668,0.0002204,53.2187,20.0868,34.1099,65.2821,-0.004967,-0.00078539,0.0,0 STARLINK-4101,1 53142U 22083L   22280.91667824 -.00078539  00000-0 -49670-2 0  9999,2 53142  53.2187  20.0868 0002204  34.1099  65.2821 15.08867668  1304,6917.795999999999,95.436,541.186,538.136,0.0
53142.0,STARLINK-4101,PAYLOAD,2022-10-08 06:00:00,15.08836732,0.0001882,53.2175,18.5765,46.6867,64.2087,2.7563e-05,1.51e-06,0.0,0 STARLINK-4101,1 53142U 22083L   22281.25001157  .00000151  00000-0  27563-4 0  9990,2 53142  53.2175  18.5765 0001882  46.6867  64.2087 15.08836732 13372,6917.89,95.438,541.057,538.453,0.0
53142.0,STARLINK-4101,PAYLOAD,2022-10-08 14:00:01,15.08842125,0.0002213,53.219,17.0951,32.0192,90.5368,-0.0020553,-0.00032853,0.0,0 STARLINK-4101,1 53142U 22083L   22281.58334491 -.00032853  00000-0 -20553-2 0  9992,2 53142  53.2190  17.0951 0002213  32.0192  90.5368 15.08842125  1306,6917.874,95.437,541.27,538.2080000000002,0.0
53142.0,STARLINK-4101,PAYLOAD,2022-10-08 22:00:00,15.08836605,0.000215,53.2188,15.5981,31.791,102.351,-0.0018537,-0.00029667,0.0,0 STARLINK-4101,1 53142U 22083L   22281.91667824 -.00029667  00000-0 -18537-2 0  9996,2 53142  53.2188  15.5981 0002150  31.7910 102.3510 15.08836605  1300,6917.891,95.438,541.243,538.268,0.0
53142.0,STARLINK-4101,PAYLOAD,2022-10-09 06:00:00,15.08817771,0.0002032,53.2191,14.101,36.9166,108.8126,0.0031469,0.00050121,0.0,0 STARLINK-4101,1 53142U 22083L   22282.25001157  .00050121  00000-0  31469-2 0  9991,2 53142  53.2191  14.1010 0002032  36.9166 108.8126 15.08817771 13525,6917.948,95.439,541.219,538.408,0.0
53142.0,STARLINK-4101,PAYLOAD,2022-10-09 14:00:01,15.08856289,0.0002109,53.2189,12.6065,32.7121,124.6381,-0.0029874,-0.00047542,0.0,0 STARLINK-4101,1 53142U 22083L   22282.58334491 -.00047542  00000-0 -29874-2 0  9999,2 53142  53.2189  12.6065 0002109  32.7121 124.6381 15.08856289  1304,6917.831,95.437,541.155,538.237,0.0
53142.0,STARLINK-4101,PAYLOAD,2022-10-09 22:00:00,15.0885334,0.0002038,53.2185,11.1094,31.9484,136.9904,-0.0034014,-0.00054037,0.0,0 STARLINK-4101,1 53142U 22083L   22282.91667824 -.00054037  00000-0 -34014-2 0  9994,2 53142  53.2185  11.1094 0002038  31.9484 136.9904 15.08853340  1302,6917.84,95.437,541.114,538.295,0.0
53142.0,STARLINK-4101,PAYLOAD,2022-10-10 14:00:01,15.08928636,0.0002110999999999,53.218,8.1112,35.9501,156.1517,-0.016903,-0.00260362,0.0,0 STARLINK-4101,1 53142U 22083L   22283.58334491 -.00260362  00000-0 -16903-1 0  9995,2 53142  53.2180   8.1112 0002111  35.9501 156.1517 15.08928636 13724,6917.609,95.432,540.935,538.014,0.0
53142.0,STARLINK-4101,PAYLOAD,2022-10-10 22:00:01,15.09047453,0.0002056,53.2179,6.6138,32.6284,171.197,-0.037674,-0.00564468,0.0,0 STARLINK-4101,1 53142U 22083L   22283.91668981 -.00564468  00000-0 -37674-1 0  9998,2 53142  53.2179   6.6138 0002056  32.6284 171.1970 15.09047453 13778,6917.246,95.424,540.534,537.689,0.0
53142.0,STARLINK-4101,PAYLOAD,2022-10-11 06:00:00,15.08792508,0.0002065999999999,53.2178,5.1212,41.0009,174.3531,-3.9746e-05,-9.2e-06,0.0,0 STARLINK-4101,1 53142U 22083L   22284.25001157 -.00000920  00000-0 -39746-4 0  9995,2 53142  53.2178   5.1212 0002066  41.0009 174.3531 15.08792508 13825,6918.026,95.441,541.32,538.461,0.0
53142.0,STARLINK-4101,PAYLOAD,2022-10-11 14:00:01,15.08668699,0.0002106,53.2178,3.617,27.3171,199.5828,0.016648,0.00273845,0.0,0 STARLINK-4101,1 53142U 22083L   22284.58334491  .00273845  00000-0  16648-1 0  9990,2 53142  53.2178   3.6170 0002106  27.3171 199.5828 15.08668699 13879,6918.404,95.448,541.726,538.812,0.0
53142.0,STARLINK-4101,PAYLOAD,2022-10-11 22:00:00,15.08838419,0.0002044,53.2175,2.117,25.1768,213.2325,-0.00020356,-3.526e-05,0.0,0 STARLINK-4101,1 53142U 22083L   22284.91667824 -.00003526  00000-0 -20356-3 0  9998,2 53142  53.2175   2.1170 0002044  25.1768 213.2325 15.08838419  1309,6917.885,95.438,541.164,538.336,0.0
53142.0,STARLINK-4101,PAYLOAD,2022-10-12 14:00:01,15.08867524,0.0002218,53.2174,359.1338,37.9143,223.6779,-0.0042388,-0.00067173,0.0,0 STARLINK-4101,1 53142U 22083L   22285.58334491 -.00067173  00000-0 -42388-2 0  9999,2 53142  53.2174 359.1338 0002218  37.9143 223.6779 15.08867524  1307,6917.795999999999,95.436,541.196,538.127,0.0
53142.0,STARLINK-4101,PAYLOAD,2022-10-12 22:00:00,15.0881397,0.0001857,53.2175,357.6309,40.5632,232.6341,0.0021041,0.00033334,0.0,0 STARLINK-4101,1 53142U 22083L   22285.91667824  .00033334  00000-0  21041-2 0  9998,2 53142  53.2175 357.6309 0001857  40.5632 232.6341 15.08813970  1301,6917.96,95.439,541.11,538.54,0.0
53142.0,STARLINK-4101,PAYLOAD,2022-10-13 06:00:00,15.08848347,0.0002163,53.2173,356.1394,39.2176,245.5414,-0.00042926,-7.115e-05,0.0,0 STARLINK-4101,1 53142U 22083L   22286.25001157 -.00007115  00000-0 -42926-3 0  9993,2 53142  53.2173 356.1394 0002163  39.2176 245.5414 15.08848347 14120,6917.855,95.437,541.216,538.224,0.0
53142.0,STARLINK-4101,PAYLOAD,2022-10-13 14:00:01,15.08845698,0.0002303,53.2174,354.6404,34.8115,261.5513,-0.00079395,-0.00012904,0.0,0 STARLINK-4101,1 53142U 22083L   22286.58334491 -.00012904  00000-0 -79395-3 0  9991,2 53142  53.2174 354.6404 0002303  34.8115 261.5513 15.08845698  1306,6917.863,95.437,541.321,538.135,0.0
53142.0,STARLINK-4101,PAYLOAD,2022-10-13 22:00:00,15.08838392,0.0002166999999999,53.2175,353.1386,32.7419,275.221,-0.00021835,-3.762e-05,0.0,0 STARLINK-4101,1 53142U 22083L   22286.91667824 -.00003762  00000-0 -21835-3 0  9995,2 53142  53.2175 353.1386 0002167  32.7419 275.2210 15.08838392  1301,6917.885,95.438,541.249,538.251,0.0
53142.0,STARLINK-4101,PAYLOAD,2022-10-14 14:00:01,15.08826493,0.0002333,53.2175,350.1502,31.1077,300.0429,0.0010103999999999,0.00015823,0.0,0 STARLINK-4101,1 53142U 22083L   22287.58334491  .00015823  00000-0  10104-2 0  9995,2 53142  53.2175 350.1502 0002333  31.1077 300.0429 15.08826493 14320,6917.922,95.438,541.401,538.173,0.0
53142.0,STARLINK-4101,PAYLOAD,2022-10-14 20:00:01,15.08838093,0.0002256999999999,53.2173,349.0238,29.4456,220.3959,-0.00017473,-3.068e-05,0.0,0 STARLINK-4101,1 53142U 22083L   22287.83334491 -.00003068  00000-0 -17473-3 0  9990,2 53142  53.2173 349.0238 0002257  29.4456 220.3959 15.08838093  1302,6917.886,95.438,541.313,538.19,0.0
53142.0,STARLINK-4101,PAYLOAD,2022-10-15 14:00:01,15.08835071,0.0002340999999999,53.2182,345.6727,30.1497,335.8742,0.0004598,7.036e-05,0.0,0 STARLINK-4101,1 53142U 22083L   22288.58334491  .00007036  00000-0  45980-3 0  9994,2 53142  53.2182 345.6727 0002341  30.1497 335.8742 15.08835071 14483,6917.895,95.438,541.38,538.141,0.0
53142.0,STARLINK-4101,PAYLOAD,2022-10-15 22:00:01,15.08836365,0.0002205,53.2182,344.1746,32.7239,344.9638,-0.0047972,-0.00075828,0.0,0 STARLINK-4101,1 53142U 22083L   22288.91668981 -.00075828  00000-0 -47972-2 0  9993,2 53142  53.2182 344.1746 0002205  32.7239 344.9638 15.08836365  1308,6917.891,95.438,541.2819999999998,538.231,0.0
53142.0,STARLINK-4101,PAYLOAD,2022-10-16 06:00:00,15.08796767,0.0002253,53.2184,342.6786,37.0015,352.1726,-5.9064e-05,-1.227e-05,0.0,0 STARLINK-4101,1 53142U 22083L   22289.25001157 -.00001227  00000-0 -59064-4 0  9996,2 53142  53.2184 342.6786 0002253  37.0015 352.1726 15.08796767 14584,6918.013000000001,95.44,541.436,538.319,0.0
53142.0,STARLINK-4101,PAYLOAD,2022-10-16 14:00:01,15.087755800000002,0.0002466,53.218,341.1827,33.9214,6.8002,0.0038555,0.00061501,0.0,0 STARLINK-4101,1 53142U 22083L   22289.58334491  .00061501  00000-0  38555-2 0  9991,2 53142  53.2180 341.1827 0002466  33.9214   6.8002 15.08775580  1308,6918.0769999999975,95.442,541.648,538.236,0.0
53142.0,STARLINK-4101,PAYLOAD,2022-10-16 22:00:00,15.08798509,0.0002262,53.2181,339.6845,36.6845,15.5734,0.0016146,0.00025473,0.0,0 STARLINK-4101,1 53142U 22083L   22289.91667824  .00025473  00000-0  16146-2 0  9997,2 53142  53.2181 339.6845 0002262  36.6845  15.5734 15.08798509  1300,6918.007,95.44,541.437,538.307,0.0
53142.0,STARLINK-4101,PAYLOAD,2022-10-17 14:00:01,15.08818352,0.0002481,53.2175,336.6931,34.9349,40.4865,0.0038387,0.00061302,0.0,0 STARLINK-4101,1 53142U 22083L   22290.58334491  .00061302  00000-0  38387-2 0  9995,2 53142  53.2175 336.6931 0002481  34.9349  40.4865 15.08818352  1300,6917.946999999999,95.439,541.528,538.095,0.0
53142.0,STARLINK-4101,PAYLOAD,2022-10-17 22:00:00,15.08850624,0.0002247,53.2177,335.1947,37.577,49.4315,-0.00090437,-0.00014657,0.0,0 STARLINK-4101,1 53142U 22083L   22290.91667824 -.00014657  00000-0 -90437-3 0  9999,2 53142  53.2177 335.1947 0002247  37.5770  49.4315 15.08850624  1307,6917.848000000001,95.437,541.2669999999998,538.158,0.0
53142.0,STARLINK-4101,PAYLOAD,2022-10-18 06:00:00,15.08821682,0.0002238,53.2176,333.6934,37.9251,60.6912,0.0050652,0.00081215,0.0,0 STARLINK-4101,1 53142U 22083L   22291.25001157  .00081215  00000-0  50652-2 0  9994,2 53142  53.2176 333.6934 0002238  37.9251  60.6912 15.08821682 14880,6917.936,95.439,541.35,538.253,0.0
53142.0,STARLINK-4101,PAYLOAD,2022-10-18 14:00:01,15.08818577,0.0002427,53.2173,332.2061,34.0797,76.1156,0.0030645,0.00048794,0.0,0 STARLINK-4101,1 53142U 22083L   22291.58334491  .00048794  00000-0  30645-2 0  9995,2 53142  53.2173 332.2061 0002427  34.0797  76.1156 15.08818577 14933,6917.946,95.439,541.49,538.132,0.0
